{
  "norad_id": 52493,
  "name": "STARLINK-3883",
  "history": [
    {
      "epoch": "2026-04-13T03:27:11.628576Z",
      "apogee_km": 540.5933232304997,
      "perigee_km": 538.9002403537443,
      "latitude_deg": -1.7076000221255018e-05,
      "longitude_deg": 1.311946593986912,
      "height_km": 540.6055361039397,
      "semi_major_axis_km": 6917.883781792122,
      "eccentricity": 0.00012237,
      "inclination_deg": 53.2174,
      "raan_deg": 254.4493,
      "arg_perigee_deg": 87.4852,
      "mean_anomaly_deg": 272.628,
      "mean_motion_rev_day": 15.0883889
    },
    {
      "epoch": "2026-04-14T19:11:50.280000Z",
      "apogee_km": 540.570621391862,
      "perigee_km": 538.9379990426505,
      "latitude_deg": -1.7099943151101136e-05,
      "longitude_deg": 116.08426973791684,
      "height_km": 540.6149447809405,
      "semi_major_axis_km": 6917.8913102172555,
      "eccentricity": 0.000118,
      "inclination_deg": 53.2174,
      "raan_deg": 247.0149,
      "arg_perigee_deg": 87.52,
      "mean_anomaly_deg": 272.5927,
      "mean_motion_rev_day": 15.08836427
    },
    {
      "epoch": "2026-04-15T19:02:37.123008Z",
      "apogee_km": 540.5616626471601,
      "perigee_km": 538.9318092389731,
      "latitude_deg": 9.55672488034002e-06,
      "longitude_deg": 112.94917764687558,
      "height_km": 540.596133506531,
      "semi_major_axis_km": 6917.883735943066,
      "eccentricity": 0.0001178,
      "inclination_deg": 53.2169,
      "raan_deg": 242.5543,
      "arg_perigee_deg": 86.7284,
      "mean_anomaly_deg": 273.3843,
      "mean_motion_rev_day": 15.08838905
    },
    {
      "epoch": "2026-04-16T15:42:37.865952Z",
      "apogee_km": 540.5983891574751,
      "perigee_km": 538.8896725428549,
      "latitude_deg": 5.020155908879257e-05,
      "longitude_deg": 158.23205560156512,
      "height_km": 540.5878723986258,
      "semi_major_axis_km": 6917.881030850165,
      "eccentricity": 0.0001235,
      "inclination_deg": 53.2175,
      "raan_deg": 238.689,
      "arg_perigee_deg": 86.5076,
      "mean_anomaly_deg": 273.6058,
      "mean_motion_rev_day": 15.0883979
    },
    {
      "epoch": "2026-04-17T17:08:48.605280Z",
      "apogee_km": 540.6350946645734,
      "perigee_km": 538.8767046473386,
      "latitude_deg": 4.861269748301706e-05,
      "longitude_deg": 130.88487630142106,
      "height_km": 540.5903727922394,
      "semi_major_axis_km": 6917.892899655955,
      "eccentricity": 0.00012709,
      "inclination_deg": 53.2177,
      "raan_deg": 233.9312,
      "arg_perigee_deg": 85.9964,
      "mean_anomaly_deg": 274.1174,
      "mean_motion_rev_day": 15.08835907
    },
    {
      "epoch": "2026-04-18T13:48:49.228992Z",
      "apogee_km": 540.6508519442623,
      "perigee_km": 538.8369835676267,
      "latitude_deg": -1.5104356128039581e-06,
      "longitude_deg": 176.16818360367645,
      "height_km": 540.579393173848,
      "semi_major_axis_km": 6917.880917755944,
      "eccentricity": 0.0001311,
      "inclination_deg": 53.2179,
      "raan_deg": 230.0659,
      "arg_perigee_deg": 86.1841,
      "mean_anomaly_deg": 273.9301,
      "mean_motion_rev_day": 15.08839827
    },
    {
      "epoch": "2026-04-19T13:39:35.957088Z",
      "apogee_km": 540.6075184041065,
      "perigee_km": 538.8738982503983,
      "latitude_deg": 2.9434779409672863e-05,
      "longitude_deg": 173.0329722023611,
      "height_km": 540.60933378042,
      "semi_major_axis_km": 6917.877708327252,
      "eccentricity": 0.0001253,
      "inclination_deg": 53.2172,
      "raan_deg": 225.6047,
      "arg_perigee_deg": 88.2015,
      "mean_anomaly_deg": 271.9121,
      "mean_motion_rev_day": 15.08840877
    },
    {
      "epoch": "2026-04-20T13:30:23.588064Z",
      "apogee_km": 540.5899103315605,
      "perigee_km": 538.912737486311,
      "latitude_deg": 1.2323704910867527e-06,
      "longitude_deg": 169.8950434562162,
      "height_km": 540.6266286834103,
      "semi_major_axis_km": 6917.8883239089355,
      "eccentricity": 0.00012122,
      "inclination_deg": 53.2169,
      "raan_deg": 221.1446,
      "arg_perigee_deg": 88.5957,
      "mean_anomaly_deg": 271.5174,
      "mean_motion_rev_day": 15.08837404
    },
    {
      "epoch": "2026-04-21T13:21:09.852192Z",
      "apogee_km": 540.375715998498,
      "perigee_km": 539.1087755934232,
      "latitude_deg": 6.653188433517714e-06,
      "longitude_deg": 166.760049865434,
      "height_km": 540.7933062348985,
      "semi_major_axis_km": 6917.879245795961,
      "eccentricity": 9.157e-05,
      "inclination_deg": 53.217,
      "raan_deg": 216.6817,
      "arg_perigee_deg": 104.1409,
      "mean_anomaly_deg": 255.9685,
      "mean_motion_rev_day": 15.08840374
    },
    {
      "epoch": "2026-04-22T13:11:57.687072Z",
      "apogee_km": 540.767204191221,
      "perigee_km": 538.7657163620943,
      "latitude_deg": 1.0696596805898204e-05,
      "longitude_deg": 163.62239245679126,
      "height_km": 540.8832828887464,
      "semi_major_axis_km": 6917.903460276658,
      "eccentricity": 0.00014466,
      "inclination_deg": 53.2182,
      "raan_deg": 212.2227,
      "arg_perigee_deg": 102.7646,
      "mean_anomaly_deg": 257.3508,
      "mean_motion_rev_day": 15.08832452
    },
    {
      "epoch": "2026-04-23T13:02:44.662272Z",
      "apogee_km": 540.5783126926053,
      "perigee_km": 538.9105498371573,
      "latitude_deg": -1.8158491027492502e-05,
      "longitude_deg": 160.48870283398276,
      "height_km": 540.6225994673397,
      "semi_major_axis_km": 6917.881431264881,
      "eccentricity": 0.00012054,
      "inclination_deg": 53.2175,
      "raan_deg": 207.7641,
      "arg_perigee_deg": 88.7793,
      "mean_anomaly_deg": 271.3337,
      "mean_motion_rev_day": 15.08839659
    },
    {
      "epoch": "2026-04-24T14:28:53.073120Z",
      "apogee_km": 540.4828903761454,
      "perigee_km": 538.9056248494098,
      "latitude_deg": -5.063898472061987e-05,
      "longitude_deg": 133.15052629277358,
      "height_km": 540.6275174817345,
      "semi_major_axis_km": 6917.831257612777,
      "eccentricity": 0.000114,
      "inclination_deg": 53.2168,
      "raan_deg": 203.0056,
      "arg_perigee_deg": 92.711,
      "mean_anomaly_deg": 267.4012,
      "mean_motion_rev_day": 15.08856074
    },
    {
      "epoch": "2026-04-25T14:19:42.216096Z",
      "apogee_km": 540.5907818088381,
      "perigee_km": 538.9401702780542,
      "latitude_deg": -5.863669162214224e-05,
      "longitude_deg": 130.00559671530115,
      "height_km": 540.6951529427951,
      "semi_major_axis_km": 6917.902476043446,
      "eccentricity": 0.0001193,
      "inclination_deg": 53.2172,
      "raan_deg": 198.5448,
      "arg_perigee_deg": 92.3441,
      "mean_anomaly_deg": 267.7687,
      "mean_motion_rev_day": 15.08832774
    },
    {
      "epoch": "2026-04-26T15:45:52.373952Z",
      "apogee_km": 540.5740769771637,
      "perigee_km": 538.8877774912216,
      "latitude_deg": 6.984381281435616e-05,
      "longitude_deg": 102.66114242086489,
      "height_km": 540.7918359852857,
      "semi_major_axis_km": 6917.867927234192,
      "eccentricity": 0.00012188,
      "inclination_deg": 53.217,
      "raan_deg": 193.7872,
      "arg_perigee_deg": 101.2874,
      "mean_anomaly_deg": 258.8256,
      "mean_motion_rev_day": 15.08844077
    },
    {
      "epoch": "2026-04-27T10:50:30.050880Z",
      "apogee_km": 540.625308843084,
      "perigee_km": 538.888917420687,
      "latitude_deg": 3.9281404079438244e-05,
      "longitude_deg": 172.15276306699212,
      "height_km": 540.7761546925232,
      "semi_major_axis_km": 6917.894113131885,
      "eccentricity": 0.0001255,
      "inclination_deg": 53.217,
      "raan_deg": 190.2193,
      "arg_perigee_deg": 98.1597,
      "mean_anomaly_deg": 261.9538,
      "mean_motion_rev_day": 15.0883551
    },
    {
      "epoch": "2026-04-28T10:41:17.775168Z",
      "apogee_km": 540.7054048207692,
      "perigee_km": 538.8112850753232,
      "latitude_deg": 2.594311109164483e-05,
      "longitude_deg": 169.01565805994076,
      "height_km": 540.5937149774676,
      "semi_major_axis_km": 6917.895344948046,
      "eccentricity": 0.0001369,
      "inclination_deg": 53.218,
      "raan_deg": 185.7604,
      "arg_perigee_deg": 86.3442,
      "mean_anomaly_deg": 273.7707,
      "mean_motion_rev_day": 15.08835107
    },
    {
      "epoch": "2026-04-29T10:32:04.246656Z",
      "apogee_km": 540.5707959007123,
      "perigee_km": 538.8933510077813,
      "latitude_deg": 2.4689469559783188e-06,
      "longitude_deg": 165.88087954856823,
      "height_km": 540.6588813699773,
      "semi_major_axis_km": 6917.869073454247,
      "eccentricity": 0.00012124,
      "inclination_deg": 53.2168,
      "raan_deg": 181.2986,
      "arg_perigee_deg": 92.1155,
      "mean_anomaly_deg": 267.9976,
      "mean_motion_rev_day": 15.08843702
    },
    {
      "epoch": "2026-04-30T13:33:37.632096Z",
      "apogee_km": 540.578333912842,
      "perigee_km": 538.9015788961487,
      "latitude_deg": 2.2525698126150177e-05,
      "longitude_deg": 114.32677240651908,
      "height_km": 540.690711444658,
      "semi_major_axis_km": 6917.876956404495,
      "eccentricity": 0.00012119,
      "inclination_deg": 53.2173,
      "raan_deg": 176.2435,
      "arg_perigee_deg": 93.7516,
      "mean_anomaly_deg": 266.3615,
      "mean_motion_rev_day": 15.08841123
    },
    {
      "epoch": "2026-05-02T10:04:25.974048Z",
      "apogee_km": 540.5897222081348,
      "perigee_km": 538.9280436170593,
      "latitude_deg": 2.3061795720248706e-05,
      "longitude_deg": 156.47084397925488,
      "height_km": 540.6740174040896,
      "semi_major_axis_km": 6917.895882912597,
      "eccentricity": 0.0001201,
      "inclination_deg": 53.2168,
      "raan_deg": 167.9171,
      "arg_perigee_deg": 91.3296,
      "mean_anomaly_deg": 268.7834,
      "mean_motion_rev_day": 15.08834931
    }
  ]
}